SNAP-3 JIMI             
1 40975U 15058M   26094.27789485  .00010480  00000+0  72986-3 0  9992
2 40975  64.7639  93.4678 0104763  85.7814 275.5267 15.01464096103120
PROPCUBE 1 (FLORA)      
1 40976U 15058N   26094.24936470  .00004423  00000+0  41819-3 0  9999
2 40976  64.7746 164.3125 0129296  89.9529 271.6398 14.88825056105251
SINOD-D 3               
1 40977U 15058P   26094.26021112  .00005929  00000+0  50478-3 0  9993
2 40977  64.7717 146.5652 0117701  87.6729 273.7854 14.93456931103719
HORYU-4                 
1 41340U 16012D   26093.77934420  .00172453  00000+0  14462-2 0  9998
2 41340  30.9909 251.8841 0005899  28.3057 331.7917 15.68293238559040
RAVAN                   
1 41849U 16067B   26094.12475950  .00075212  00000+0  14054-2 0  9992
2 41849  97.9989 335.5076 0004169 251.6001 108.4795 15.48477393516213
CELTEE 1                
1 41850U 16067C   26094.11379938  .00011102  00000+0  53449-3 0  9992
2 41850  98.0772 315.6275 0002251 108.3961 251.7517 15.18953324514638
OPTICUBE 04             
1 41851U 16067D   26094.10134228  .00004926  00000+0  31220-3 0  9992
2 41851  98.0783 302.4994 0015983  13.8204 346.3458 15.09350689513997
AEROCUBE 8D             
1 41852U 16067E   26094.15253882  .00014807  00000+0  62531-3 0  9994
2 41852  98.0787 318.7084 0004403  49.1804 310.9812 15.23371614514792
AEROCUBE 8C             
1 41853U 16067F   26094.12340711  .00015389  00000+0  64526-3 0  9992
2 41853  98.0657 316.0021 0004456 330.9819  29.1168 15.23602568514783
CORVUS BC2              
1 42846U 17042X   26094.24650904  .00006988  00000+0  48457-3 0  9990
2 42846  97.3993 258.5269 0013334  12.9969 347.1600 15.05833911475938
CORVUS BC1              
1 42847U 17042Y   26094.18314428  .00005951  00000+0  41148-3 0  9991
2 42847  97.4026 259.2307 0011476 350.2945   9.8059 15.06020272475956
MAKERSAT 0              
1 43016U 17073D   26094.10528964  .00037765  00000+0  10974-2 0  9998
2 43016  97.4728 336.1839 0114368 175.1072 185.1316 15.29018212455136
SIRION PATHFINDER-2     
1 43759U 18099B   26094.10228335  .00010655  00000+0  59177-3 0  9998
2 43759  97.4330 144.9274 0008768 186.3036 173.8087 15.13866670401410
CORVUS BC4              
1 43767U 18099K   26094.07640850  .00009823  00000+0  57678-3 0  9992
2 43767  97.4151 139.2273 0006954 253.1776 106.8692 15.11899242401209
M2 PATHFINDER           
1 45727U 20037E   26094.08958772  .00005094  00000+0  36927-3 0  9991
2 45727  97.8153 284.4929 0012430  47.8519 312.3761 15.04346196314350
NETSAT-4                
1 46504U 20068U   26094.24195010  .00030678  00000+0  73265-3 0  9997
2 46504  97.8634  96.6793 0004725 203.6215 156.4814 15.41462238304377
