[{"OBJECT_NAME":"SNAP-3 JIMI","OBJECT_ID":"2015-058M","EPOCH":"2026-04-04T06:40:10.115040","MEAN_MOTION":15.01464096,"ECCENTRICITY":0.01047636,"INCLINATION":64.7639,"RA_OF_ASC_NODE":93.4678,"ARG_OF_PERICENTER":85.7814,"MEAN_ANOMALY":275.5267,"EPHEMERIS_TYPE":0,"CLASSIFICATION_TYPE":"U","NORAD_CAT_ID":40975,"ELEMENT_SET_NO":999,"REV_AT_EPOCH":10312,"BSTAR":0.00072985654,"MEAN_MOTION_DOT":0.0001048,"MEAN_MOTION_DDOT":0},{"OBJECT_NAME":"PROPCUBE 1 (FLORA)","OBJECT_ID":"2015-058N","EPOCH":"2026-04-04T05:59:05.110080","MEAN_MOTION":14.88825056,"ECCENTRICITY":0.01292963,"INCLINATION":64.7746,"RA_OF_ASC_NODE":164.3125,"ARG_OF_PERICENTER":89.9529,"MEAN_ANOMALY":271.6398,"EPHEMERIS_TYPE":0,"CLASSIFICATION_TYPE":"U","NORAD_CAT_ID":40976,"ELEMENT_SET_NO":999,"REV_AT_EPOCH":10525,"BSTAR":0.00041819192,"MEAN_MOTION_DOT":4.423e-5,"MEAN_MOTION_DDOT":0},{"OBJECT_NAME":"SINOD-D 3","OBJECT_ID":"2015-058P","EPOCH":"2026-04-04T06:14:42.240768","MEAN_MOTION":14.93456931,"ECCENTRICITY":0.01177014,"INCLINATION":64.7717,"RA_OF_ASC_NODE":146.5652,"ARG_OF_PERICENTER":87.6729,"MEAN_ANOMALY":273.7854,"EPHEMERIS_TYPE":0,"CLASSIFICATION_TYPE":"U","NORAD_CAT_ID":40977,"ELEMENT_SET_NO":999,"REV_AT_EPOCH":10371,"BSTAR":0.00050478342,"MEAN_MOTION_DOT":5.929e-5,"MEAN_MOTION_DDOT":0},{"OBJECT_NAME":"HORYU-4","OBJECT_ID":"2016-012D","EPOCH":"2026-04-03T18:42:15.338880","MEAN_MOTION":15.68293238,"ECCENTRICITY":0.00058997,"INCLINATION":30.9909,"RA_OF_ASC_NODE":251.8841,"ARG_OF_PERICENTER":28.3057,"MEAN_ANOMALY":331.7917,"EPHEMERIS_TYPE":0,"CLASSIFICATION_TYPE":"U","NORAD_CAT_ID":41340,"ELEMENT_SET_NO":999,"REV_AT_EPOCH":55904,"BSTAR":0.0014462245,"MEAN_MOTION_DOT":0.00172453,"MEAN_MOTION_DDOT":0},{"OBJECT_NAME":"RAVAN","OBJECT_ID":"2016-067B","EPOCH":"2026-04-04T02:59:39.220800","MEAN_MOTION":15.48477393,"ECCENTRICITY":0.00041697,"INCLINATION":97.9989,"RA_OF_ASC_NODE":335.5076,"ARG_OF_PERICENTER":251.6001,"MEAN_ANOMALY":108.4795,"EPHEMERIS_TYPE":0,"CLASSIFICATION_TYPE":"U","NORAD_CAT_ID":41849,"ELEMENT_SET_NO":999,"REV_AT_EPOCH":51621,"BSTAR":0.0014054198,"MEAN_MOTION_DOT":0.00075212,"MEAN_MOTION_DDOT":0},{"OBJECT_NAME":"CELTEE 1","OBJECT_ID":"2016-067C","EPOCH":"2026-04-04T02:43:52.266432","MEAN_MOTION":15.18953324,"ECCENTRICITY":0.00022515,"INCLINATION":98.0772,"RA_OF_ASC_NODE":315.6275,"ARG_OF_PERICENTER":108.3961,"MEAN_ANOMALY":251.7517,"EPHEMERIS_TYPE":0,"CLASSIFICATION_TYPE":"U","NORAD_CAT_ID":41850,"ELEMENT_SET_NO":999,"REV_AT_EPOCH":51463,"BSTAR":0.00053448862,"MEAN_MOTION_DOT":0.00011102,"MEAN_MOTION_DDOT":0},{"OBJECT_NAME":"OPTICUBE 04","OBJECT_ID":"2016-067D","EPOCH":"2026-04-04T02:25:55.972992","MEAN_MOTION":15.09350689,"ECCENTRICITY":0.00159838,"INCLINATION":98.0783,"RA_OF_ASC_NODE":302.4994,"ARG_OF_PERICENTER":13.8204,"MEAN_ANOMALY":346.3458,"EPHEMERIS_TYPE":0,"CLASSIFICATION_TYPE":"U","NORAD_CAT_ID":41851,"ELEMENT_SET_NO":999,"REV_AT_EPOCH":51399,"BSTAR":0.00031220209,"MEAN_MOTION_DOT":4.926e-5,"MEAN_MOTION_DDOT":0},{"OBJECT_NAME":"AEROCUBE 8D","OBJECT_ID":"2016-067E","EPOCH":"2026-04-04T03:39:39.354048","MEAN_MOTION":15.23371614,"ECCENTRICITY":0.00044033,"INCLINATION":98.0787,"RA_OF_ASC_NODE":318.7084,"ARG_OF_PERICENTER":49.1804,"MEAN_ANOMALY":310.9812,"EPHEMERIS_TYPE":0,"CLASSIFICATION_TYPE":"U","NORAD_CAT_ID":41852,"ELEMENT_SET_NO":999,"REV_AT_EPOCH":51479,"BSTAR":0.00062530886,"MEAN_MOTION_DOT":0.00014807,"MEAN_MOTION_DDOT":0},{"OBJECT_NAME":"AEROCUBE 8C","OBJECT_ID":"2016-067F","EPOCH":"2026-04-04T02:57:42.374304","MEAN_MOTION":15.23602568,"ECCENTRICITY":0.00044567,"INCLINATION":98.0657,"RA_OF_ASC_NODE":316.0021,"ARG_OF_PERICENTER":330.9819,"MEAN_ANOMALY":29.1168,"EPHEMERIS_TYPE":0,"CLASSIFICATION_TYPE":"U","NORAD_CAT_ID":41853,"ELEMENT_SET_NO":999,"REV_AT_EPOCH":51478,"BSTAR":0.00064525742,"MEAN_MOTION_DOT":0.00015389,"MEAN_MOTION_DDOT":0},{"OBJECT_NAME":"CORVUS BC2","OBJECT_ID":"2017-042X","EPOCH":"2026-04-04T05:54:58.381056","MEAN_MOTION":15.05833911,"ECCENTRICITY":0.00133342,"INCLINATION":97.3993,"RA_OF_ASC_NODE":258.5269,"ARG_OF_PERICENTER":12.9969,"MEAN_ANOMALY":347.16,"EPHEMERIS_TYPE":0,"CLASSIFICATION_TYPE":"U","NORAD_CAT_ID":42846,"ELEMENT_SET_NO":999,"REV_AT_EPOCH":47593,"BSTAR":0.00048456506,"MEAN_MOTION_DOT":6.988e-5,"MEAN_MOTION_DDOT":0},{"OBJECT_NAME":"CORVUS BC1","OBJECT_ID":"2017-042Y","EPOCH":"2026-04-04T04:23:43.665792","MEAN_MOTION":15.06020272,"ECCENTRICITY":0.00114769,"INCLINATION":97.4026,"RA_OF_ASC_NODE":259.2307,"ARG_OF_PERICENTER":350.2945,"MEAN_ANOMALY":9.8059,"EPHEMERIS_TYPE":0,"CLASSIFICATION_TYPE":"U","NORAD_CAT_ID":42847,"ELEMENT_SET_NO":999,"REV_AT_EPOCH":47595,"BSTAR":0.00041148339,"MEAN_MOTION_DOT":5.951e-5,"MEAN_MOTION_DDOT":0},{"OBJECT_NAME":"MAKERSAT 0","OBJECT_ID":"2017-073D","EPOCH":"2026-04-04T02:31:37.024896","MEAN_MOTION":15.29018212,"ECCENTRICITY":0.01143682,"INCLINATION":97.4728,"RA_OF_ASC_NODE":336.1839,"ARG_OF_PERICENTER":175.1072,"MEAN_ANOMALY":185.1316,"EPHEMERIS_TYPE":0,"CLASSIFICATION_TYPE":"U","NORAD_CAT_ID":43016,"ELEMENT_SET_NO":999,"REV_AT_EPOCH":45513,"BSTAR":0.0010973892,"MEAN_MOTION_DOT":0.00037765,"MEAN_MOTION_DDOT":0},{"OBJECT_NAME":"SIRION PATHFINDER-2","OBJECT_ID":"2018-099B","EPOCH":"2026-04-04T02:27:17.281440","MEAN_MOTION":15.1386667,"ECCENTRICITY":0.00087687,"INCLINATION":97.433,"RA_OF_ASC_NODE":144.9274,"ARG_OF_PERICENTER":186.3036,"MEAN_ANOMALY":173.8087,"EPHEMERIS_TYPE":0,"CLASSIFICATION_TYPE":"U","NORAD_CAT_ID":43759,"ELEMENT_SET_NO":999,"REV_AT_EPOCH":40141,"BSTAR":0.00059176856,"MEAN_MOTION_DOT":0.00010655,"MEAN_MOTION_DDOT":0},{"OBJECT_NAME":"CORVUS BC4","OBJECT_ID":"2018-099K","EPOCH":"2026-04-04T01:50:01.694400","MEAN_MOTION":15.11899242,"ECCENTRICITY":0.00069543,"INCLINATION":97.4151,"RA_OF_ASC_NODE":139.2273,"ARG_OF_PERICENTER":253.1776,"MEAN_ANOMALY":106.8692,"EPHEMERIS_TYPE":0,"CLASSIFICATION_TYPE":"U","NORAD_CAT_ID":43767,"ELEMENT_SET_NO":999,"REV_AT_EPOCH":40120,"BSTAR":0.00057678009,"MEAN_MOTION_DOT":9.823e-5,"MEAN_MOTION_DDOT":0},{"OBJECT_NAME":"M2 PATHFINDER","OBJECT_ID":"2020-037E","EPOCH":"2026-04-04T02:09:00.379008","MEAN_MOTION":15.04346196,"ECCENTRICITY":0.00124301,"INCLINATION":97.8153,"RA_OF_ASC_NODE":284.4929,"ARG_OF_PERICENTER":47.8519,"MEAN_ANOMALY":312.3761,"EPHEMERIS_TYPE":0,"CLASSIFICATION_TYPE":"U","NORAD_CAT_ID":45727,"ELEMENT_SET_NO":999,"REV_AT_EPOCH":31435,"BSTAR":0.00036926882,"MEAN_MOTION_DOT":5.094e-5,"MEAN_MOTION_DDOT":0},{"OBJECT_NAME":"NETSAT-4","OBJECT_ID":"2020-068U","EPOCH":"2026-04-04T05:48:24.488640","MEAN_MOTION":15.41462238,"ECCENTRICITY":0.00047256,"INCLINATION":97.8634,"RA_OF_ASC_NODE":96.6793,"ARG_OF_PERICENTER":203.6215,"MEAN_ANOMALY":156.4814,"EPHEMERIS_TYPE":0,"CLASSIFICATION_TYPE":"U","NORAD_CAT_ID":46504,"ELEMENT_SET_NO":999,"REV_AT_EPOCH":30437,"BSTAR":0.00073264837,"MEAN_MOTION_DOT":0.00030678,"MEAN_MOTION_DDOT":0}]
